NORAD_CAT_ID,OBJECT_NAME,OBJECT_TYPE,EPOCH,MEAN_MOTION,ECCENTRICITY,INCLINATION,RA_OF_ASC_NODE,ARG_OF_PERICENTER,MEAN_ANOMALY,BSTAR,MEAN_MOTION_DOT,MEAN_MOTION_DDOT,TLE_LINE0,TLE_LINE1,TLE_LINE2,SEMIMAJOR_AXIS,PERIOD,APOGEE,PERIGEE,DECAYED
49730.0,STARLINK-3249,PAYLOAD,2023-05-03 02:05:02,15.08838512,0.0001021,53.2145,155.0661,94.5583,265.5526,0.00010539,1.39e-05,0.0,0 STARLINK-3249,1 49730U 21115G   23123.08683713  .00001390  00000-0  10539-3 0  9994,2 49730  53.2145 155.0661 0001021  94.5583 265.5526 15.08838512 79252,6917.885,95.438,540.456,539.044,0.0
49730.0,STARLINK-3249,PAYLOAD,2023-05-03 11:37:21,15.08837055,0.0001248,53.2139,153.2817,99.3348,260.7785,3.8737e-05,3.29e-06,0.0,0 STARLINK-3249,1 49730U 21115G   23123.48427798  .00000329  00000-0  38737-4 0  9999,2 49730  53.2139 153.2817 0001248  99.3348 260.7785 15.08837055 78200,6917.889,95.438,540.618,538.891,0.0
49730.0,STARLINK-3249,PAYLOAD,2023-05-03 13:12:44,15.08841163,0.0001038,53.2154,152.9844,96.4893,263.6217,8.9769e-05,1.141e-05,0.0,0 STARLINK-3249,1 49730U 21115G   23123.55051701  .00001141  00000-0  89769-4 0  9998,2 49730  53.2154 152.9844 0001038  96.4893 263.6217 15.08841163 78211,6917.877,95.437,540.46,539.024,0.0
49730.0,STARLINK-3249,PAYLOAD,2023-05-04 08:17:22,15.08842002,0.0001079,53.2153,149.4163,93.3649,266.7466,-1.7739e-05,-5.7e-06,0.0,0 STARLINK-3249,1 49730U 21115G   23124.34539851 -.00000570  00000-0 -17739-4 0  9998,2 49730  53.2153 149.4163 0001079  93.3649 266.7466 15.08842002 78331,6917.874,95.437,540.486,538.993,0.0
49730.0,STARLINK-3249,PAYLOAD,2023-05-04 13:03:31,15.08845115,0.0001197,53.2152,148.5241,98.5609,261.5519,1.4971e-05,-5e-07,0.0,0 STARLINK-3249,1 49730U 21115G   23124.54411564 -.00000050  00000-0  14971-4 0  9997,2 49730  53.2152 148.5241 0001197  98.5609 261.5519 15.08845115 79477,6917.865,95.437,540.558,538.902,0.0
49730.0,STARLINK-3249,PAYLOAD,2023-05-04 21:00:27,15.08840127,0.000114,53.2152,147.0372,94.5522,265.5601,0.00010455,1.376e-05,0.0,0 STARLINK-3249,1 49730U 21115G   23124.87531694  .00001376  00000-0  10455-3 0  9993,2 49730  53.2152 147.0372 0001140  94.5522 265.5601 15.08840127 78411,6917.88,95.438,540.534,538.956,0.0
49730.0,STARLINK-3249,PAYLOAD,2023-05-05 08:08:09,15.08839263,0.0001157,53.2151,144.9557,94.6479,265.4645,0.00011073,1.475e-05,0.0,0 STARLINK-3249,1 49730U 21115G   23125.33899833  .00001475  00000-0  11073-3 0  9994,2 49730  53.2151 144.9557 0001157  94.6479 265.4645 15.08839263 79597,6917.883,95.438,540.548,538.947,0.0
49730.0,STARLINK-3249,PAYLOAD,2023-05-05 17:40:28,15.08837909,0.0001166,53.2149,143.1714,94.4061,265.7064,8.4262e-05,1.053e-05,0.0,0 STARLINK-3249,1 49730U 21115G   23125.73644048  .00001053  00000-0  84262-4 0  9997,2 49730  53.2149 143.1714 0001166  94.4061 265.7064 15.08837909 78542,6917.887,95.438,540.558,538.945,0.0
49730.0,STARLINK-3249,PAYLOAD,2023-05-06 06:23:33,15.08840411,0.0001146,53.2149,140.7918,93.3064,266.8059,9.6327e-05,1.246e-05,0.0,0 STARLINK-3249,1 49730U 21115G   23126.26636105  .00001246  00000-0  96327-4 0  9990,2 49730  53.2149 140.7918 0001146  93.3064 266.8059 15.08840411 78627,6917.879,95.438,540.537,538.951,0.0
49730.0,STARLINK-3249,PAYLOAD,2023-05-06 23:52:48,15.0883834,0.0001102,53.2149,137.5219,90.1416,269.9703,7.2347e-05,8.64e-06,0.0,0 STARLINK-3249,1 49730U 21115G   23126.99500324  .00000864  00000-0  72347-4 0  9994,2 49730  53.2149 137.5219 0001102  90.1416 269.9703 15.08838340 79846,6917.885,95.438,540.513,538.988,0.0
49730.0,STARLINK-3249,PAYLOAD,2023-05-07 07:49:43,15.08841289,0.0001095,53.2149,136.0354,90.9483,269.1635,5.7097e-05,6.21e-06,0.0,0 STARLINK-3249,1 49730U 21115G   23127.32620184  .00000621  00000-0  57097-4 0  9995,2 49730  53.2149 136.0354 0001095  90.9483 269.1635 15.08841289 78787,6917.876,95.437,540.499,538.984,0.0
49730.0,STARLINK-3249,PAYLOAD,2023-05-07 17:22:03,15.08836207,0.0001083,53.2149,134.2512,93.6174,266.4942,3.4423e-05,2.6e-06,0.0,0 STARLINK-3249,1 49730U 21115G   23127.72364593  .00000260  00000-0  34423-4 0  9995,2 49730  53.2149 134.2512 0001083  93.6174 266.4942 15.08836207 78849,6917.892,95.438,540.506,539.008,0.0
49730.0,STARLINK-3249,PAYLOAD,2023-05-08 04:29:45,15.08832803,0.00011,53.2147,132.1711,100.0655,260.0462,5.2471e-06,-2.04e-06,0.0,0 STARLINK-3249,1 49730U 21115G   23128.18733068 -.00000204  00000-0  52471-5 0  9996,2 49730  53.2147 132.1711 0001100 100.0655 260.0462 15.08832803 80020,6917.902,95.438,540.528,539.006,0.0
49730.0,STARLINK-3249,PAYLOAD,2023-05-08 17:12:50,15.08837222,0.0001138,53.2148,129.7916,91.584,268.5282,4.815e-05,4.79e-06,0.0,0 STARLINK-3249,1 49730U 21115G   23128.71724824  .00000479  00000-0  48150-4 0  9996,2 49730  53.2148 129.7916 0001138  91.5840 268.5282 15.08837222 78997,6917.889,95.438,540.541,538.967,0.0
49730.0,STARLINK-3249,PAYLOAD,2023-05-09 07:31:18,15.08842761,0.0001145,53.2148,127.1147,90.7363,269.376,0.00010298,1.352e-05,0.0,0 STARLINK-3249,1 49730U 21115G   23129.31340398  .00001352  00000-0  10298-3 0  9995,2 49730  53.2148 127.1147 0001145  90.7363 269.3760 15.08842761 79089,6917.872,95.437,540.529,538.945,0.0
49730.0,STARLINK-3249,PAYLOAD,2023-05-10 05:46:42,15.08837226,0.000119,53.2153,122.9489,89.487,270.6259,0.00011791,1.589e-05,0.0,0 STARLINK-3249,1 49730U 21115G   23130.24076976  .00001589  00000-0  11791-3 0  9998,2 49730  53.2153 122.9489 0001190  89.4870 270.6259 15.08837226 79229,6917.889,95.438,540.577,538.931,0.0
49730.0,STARLINK-3249,PAYLOAD,2023-05-10 16:54:24,15.08842748,0.0001216,53.2156,120.8671,89.2791,270.834,0.00011189,1.493e-05,0.0,0 STARLINK-3249,1 49730U 21115G   23130.70444656  .00001493  00000-0  11189-3 0  9998,2 49730  53.2156 120.8671 0001216  89.2791 270.8340 15.08842748 79296,6917.872,95.437,540.578,538.896,0.0
49730.0,STARLINK-3249,PAYLOAD,2023-05-11 05:37:30,15.08836094,0.0001334,53.2162,118.4894,89.4527,270.6618,-1.0356e-05,-4.53e-06,0.0,0 STARLINK-3249,1 49730U 21115G   23131.23437503 -.00000453  00000-0 -10356-4 0  9993,2 49730  53.2162 118.4894 0001334  89.4527 270.6618 15.08836094 79375,6917.892,95.438,540.68,538.834,0.0
49730.0,STARLINK-3249,PAYLOAD,2023-05-11 16:45:11,15.08837801,0.0001227,53.2156,116.4072,88.0712,272.0421,2.9827e-05,1.87e-06,0.0,0 STARLINK-3249,1 49730U 21115G   23131.69805344  .00000187  00000-0  29827-4 0  9990,2 49730  53.2156 116.4072 0001227  88.0712 272.0421 15.08837801 79449,6917.887,95.438,540.601,538.903,0.0
49730.0,STARLINK-3249,PAYLOAD,2023-05-12 05:28:16,15.08844458,0.0001118,53.2153,114.0276,89.5537,270.5583,0.00010494,1.383e-05,0.0,0 STARLINK-3249,1 49730U 21115G   23132.22796641  .00001383  00000-0  10494-3 0  9997,2 49730  53.2153 114.0276 0001118  89.5537 270.5583 15.08844458 80637,6917.867,95.437,540.505,538.958,0.0
49730.0,STARLINK-3249,PAYLOAD,2023-05-13 05:19:03,15.08841609,0.0001061,53.2157,109.5669,88.8061,271.3053,0.00014503,2.021e-05,0.0,0 STARLINK-3249,1 49730U 21115G   23133.22156676  .00002021  00000-0  14503-3 0  9991,2 49730  53.2157 109.5669 0001061  88.8061 271.3053 15.08841609 80789,6917.875,95.437,540.474,539.006,0.0
49730.0,STARLINK-3249,PAYLOAD,2023-05-13 19:37:32,15.08835573,0.0001063,53.2155,106.8928,91.8551,268.2563,-2.7589e-05,-7.27e-06,0.0,0 STARLINK-3249,1 49730U 21115G   23133.81773594 -.00000727  00000-0 -27589-4 0  9992,2 49730  53.2155 106.8928 0001063  91.8551 268.2563 15.08835573 79765,6917.894,95.438,540.494,539.024,0.0
49730.0,STARLINK-3249,PAYLOAD,2023-05-14 03:34:28,15.08836206,0.0001059,53.2157,105.4063,90.6389,269.4724,-1.6597e-05,-5.52e-06,0.0,0 STARLINK-3249,1 49730U 21115G   23134.14893564 -.00000552  00000-0 -16597-4 0  9992,2 49730  53.2157 105.4063 0001059  90.6389 269.4724 15.08836206 80929,6917.892,95.438,540.49,539.024,0.0
49730.0,STARLINK-3249,PAYLOAD,2023-05-14 21:03:42,15.08836462,9.76e-05,53.215,102.1317,98.7171,261.3932,2.3323e-05,8.3e-07,0.0,0 STARLINK-3249,1 49730U 21115G   23134.87757381  .00000083  00000-0  23323-4 0  9990,2 49730  53.2150 102.1317 0000976  98.7171 261.3932 15.08836462 79927,6917.891,95.438,540.431,539.081,0.0
49730.0,STARLINK-3249,PAYLOAD,2023-05-15 05:00:37,15.08840747,9.46e-05,53.2157,100.6467,99.1329,260.977,5.8398e-05,6.42e-06,0.0,0 STARLINK-3249,1 49730U 21115G   23135.20877053  .00000642  00000-0  58398-4 0  9998,2 49730  53.2157 100.6467 0000946  99.1329 260.9770 15.08840747 81086,6917.878,95.438,540.398,539.089,0.0
49730.0,STARLINK-3249,PAYLOAD,2023-05-15 14:32:56,15.08842326,8.88e-05,53.2158,98.8628,90.2991,269.8103,5.4681e-06,-2.01e-06,0.0,0 STARLINK-3249,1 49730U 21115G   23135.60621090 -.00000201  00000-0  54681-5 0  9994,2 49730  53.2158  98.8628 0000888  90.2991 269.8103 15.08842326 80033,6917.873,95.437,540.353,539.124,0.0
49730.0,STARLINK-3249,PAYLOAD,2023-05-16 06:26:48,15.08837394,9.66e-05,53.2164,95.8896,91.9732,268.1371,8.1555e-05,1.01e-05,0.0,0 STARLINK-3249,1 49730U 21115G   23136.26861467  .00001010  00000-0  81555-4 0  9998,2 49730  53.2164  95.8896 0000966  91.9732 268.1371 15.08837394 81244,6917.888,95.438,540.422,539.085,0.0
49730.0,STARLINK-3249,PAYLOAD,2023-05-17 06:17:34,15.08845326,0.0001044,53.2168,91.4292,88.6979,271.4132,9.1099e-05,1.163e-05,0.0,0 STARLINK-3249,1 49730U 21115G   23137.26220961  .00001163  00000-0  91099-4 0  9990,2 49730  53.2168  91.4292 0001044  88.6979 271.4132 15.08845326 81396,6917.864,95.437,540.451,539.007,0.0
49730.0,STARLINK-3249,PAYLOAD,2023-05-18 02:57:36,15.08823189,0.0001095,53.2174,87.5609,94.9457,265.166,0.00016587,2.352e-05,0.0,0 STARLINK-3249,1 49730U 21115G   23138.12334306  .00002352  00000-0  16587-3 0  9994,2 49730  53.2174  87.5609 0001095  94.9457 265.1660 15.08823189 81522,6917.932,95.439,540.554,539.039,0.0
49730.0,STARLINK-3249,PAYLOAD,2023-05-18 06:08:22,15.08838196,0.0001086,53.2172,86.9654,95.9041,264.2075,1.7239e-05,-1.3e-07,0.0,0 STARLINK-3249,1 49730U 21115G   23138.25581656 -.00000013  00000-0  17239-4 0  9999,2 49730  53.2172  86.9654 0001086  95.9041 264.2075 15.08838196 81549,6917.886,95.438,540.502,539.0,0.0
